ONEWEB-0012             
1 44057U 19010A   26070.21709804  .00000057  00000+0  11508-3 0  9996
2 44057  87.9002 248.2703 0001240 103.9186 256.2083 13.16593773338677
ONEWEB-0010             
1 44058U 19010B   26070.24243158  .00000150  00000+0  35875-3 0  9992
2 44058  87.9006 248.2605 0001955 100.5107 259.6245 13.16593511338725
ONEWEB-0008             
1 44059U 19010C   26070.03977550  .00000031  00000+0  47550-4 0  9992
2 44059  87.9006 248.2980 0001599  87.1521 272.9793 13.16593708338810
ONEWEB-0007             
1 44060U 19010D   26070.30113278 -.00000143  00000+0 -41375-3 0  9997
2 44060  87.8939 278.7683 0001610 101.0340 259.0972 13.15546482338500
ONEWEB-0006             
1 44061U 19010E   26070.30510193  .00000003  00000+0 -26976-4 0  9990
2 44061  87.8946 278.7222 0001732  96.3037 263.8291 13.15547360338550
ONEWEB-0011             
1 44062U 19010F   26070.27340614  .00000049  00000+0  95990-4 0  9997
2 44062  87.8950 278.7363 0001818  87.3299 272.8039 13.15547354338549
ONEWEB-0013             
1 45131U 20008A   26070.28743229  .00000359  00000+0  10045-2 0  9994
2 45131  87.8445  72.5862 0000844  92.7821 267.3403 13.09452684293255
ONEWEB-0017             
1 45132U 20008B   26070.03306175  .00000465  00000+0  12964-2 0  9993
2 45132  87.8772  55.8120 0002055  89.2794 270.8569 13.10370422295093
ONEWEB-0020             
1 45133U 20008C   26070.23225381 -.00000024  00000+0 -10411-3 0  9994
2 45133  87.8783  55.7632 0001816  85.3218 274.8117 13.10375865295511
ONEWEB-0021             
1 45134U 20008D   26070.01812474  .00000573  00000+0  16060-2 0  9998
2 45134  87.8775  55.8298 0001784  89.0555 271.0777 13.10373607295794
ONEWEB-0023             
1 45136U 20008F   26070.02890739  .00000583  00000+0  16336-2 0  9998
2 45136  87.8769  55.8074 0001659  85.3597 274.7720 13.10372089295226
ONEWEB-0024             
1 45137U 20008G   26069.92515559 -.00000110  00000+0 -35132-3 0  9994
2 45137  87.8785  55.8136 0001866  85.9430 274.1911 13.10375760295377
ONEWEB-0025             
1 45138U 20008H   26070.31399739  .00000181  00000+0  47762-3 0  9998
2 45138  87.8785  55.7273 0001501  90.5556 269.5743 13.10877776295753
ONEWEB-0026             
1 45139U 20008J   26069.96462943  .00000237  00000+0  63245-3 0  9992
2 45139  87.8872  40.5925 0002025  82.0645 278.0713 13.11417799298238
ONEWEB-0028             
1 45140U 20008K   26070.30286784  .00000218  00000+0  58040-3 0  9997
2 45140  87.8856  40.5338 0001193  82.3408 277.7856 13.11413723295790
ONEWEB-0032             
1 45141U 20008L   26069.95836949  .00001547  00000+0  43951-2 0  9991
2 45141  87.8771  55.8283 0001340  82.4729 277.6551 13.10364477295438
ONEWEB-0033             
1 45142U 20008M   26070.31523453  .00000112  00000+0  28550-3 0  9993
2 45142  87.8774  55.7644 0002156  86.5101 273.6273 13.10373375295396
