[{"OBJECT_NAME":"ONEWEB-0012","OBJECT_ID":"2019-010A","EPOCH":"2026-03-11T05:12:37.270656","MEAN_MOTION":13.16593773,"ECCENTRICITY":0.00012405,"INCLINATION":87.9002,"RA_OF_ASC_NODE":248.2703,"ARG_OF_PERICENTER":103.9186,"MEAN_ANOMALY":256.2083,"EPHEMERIS_TYPE":0,"CLASSIFICATION_TYPE":"U","NORAD_CAT_ID":44057,"ELEMENT_SET_NO":999,"REV_AT_EPOCH":33867,"BSTAR":0.00011508194,"MEAN_MOTION_DOT":5.7e-7,"MEAN_MOTION_DDOT":0},{"OBJECT_NAME":"ONEWEB-0010","OBJECT_ID":"2019-010B","EPOCH":"2026-03-11T05:49:06.088512","MEAN_MOTION":13.16593511,"ECCENTRICITY":0.00019559,"INCLINATION":87.9006,"RA_OF_ASC_NODE":248.2605,"ARG_OF_PERICENTER":100.5107,"MEAN_ANOMALY":259.6245,"EPHEMERIS_TYPE":0,"CLASSIFICATION_TYPE":"U","NORAD_CAT_ID":44058,"ELEMENT_SET_NO":999,"REV_AT_EPOCH":33872,"BSTAR":0.00035875088,"MEAN_MOTION_DOT":1.5e-6,"MEAN_MOTION_DDOT":0},{"OBJECT_NAME":"ONEWEB-0008","OBJECT_ID":"2019-010C","EPOCH":"2026-03-11T00:57:16.603200","MEAN_MOTION":13.16593708,"ECCENTRICITY":0.00015993,"INCLINATION":87.9006,"RA_OF_ASC_NODE":248.298,"ARG_OF_PERICENTER":87.1521,"MEAN_ANOMALY":272.9793,"EPHEMERIS_TYPE":0,"CLASSIFICATION_TYPE":"U","NORAD_CAT_ID":44059,"ELEMENT_SET_NO":999,"REV_AT_EPOCH":33881,"BSTAR":4.7549546e-5,"MEAN_MOTION_DOT":3.1e-7,"MEAN_MOTION_DDOT":0},{"OBJECT_NAME":"ONEWEB-0007","OBJECT_ID":"2019-010D","EPOCH":"2026-03-11T07:13:37.872192","MEAN_MOTION":13.15546482,"ECCENTRICITY":0.00016104,"INCLINATION":87.8939,"RA_OF_ASC_NODE":278.7683,"ARG_OF_PERICENTER":101.034,"MEAN_ANOMALY":259.0972,"EPHEMERIS_TYPE":0,"CLASSIFICATION_TYPE":"U","NORAD_CAT_ID":44060,"ELEMENT_SET_NO":999,"REV_AT_EPOCH":33850,"BSTAR":-0.00041375293,"MEAN_MOTION_DOT":-1.43e-6,"MEAN_MOTION_DDOT":0},{"OBJECT_NAME":"ONEWEB-0006","OBJECT_ID":"2019-010E","EPOCH":"2026-03-11T07:19:20.806752","MEAN_MOTION":13.1554736,"ECCENTRICITY":0.00017329,"INCLINATION":87.8946,"RA_OF_ASC_NODE":278.7222,"ARG_OF_PERICENTER":96.3037,"MEAN_ANOMALY":263.8291,"EPHEMERIS_TYPE":0,"CLASSIFICATION_TYPE":"U","NORAD_CAT_ID":44061,"ELEMENT_SET_NO":999,"REV_AT_EPOCH":33855,"BSTAR":-2.6976436e-5,"MEAN_MOTION_DOT":3.0e-8,"MEAN_MOTION_DDOT":0},{"OBJECT_NAME":"ONEWEB-0011","OBJECT_ID":"2019-010F","EPOCH":"2026-03-11T06:33:42.290496","MEAN_MOTION":13.15547354,"ECCENTRICITY":0.00018184,"INCLINATION":87.895,"RA_OF_ASC_NODE":278.7363,"ARG_OF_PERICENTER":87.3299,"MEAN_ANOMALY":272.8039,"EPHEMERIS_TYPE":0,"CLASSIFICATION_TYPE":"U","NORAD_CAT_ID":44062,"ELEMENT_SET_NO":999,"REV_AT_EPOCH":33854,"BSTAR":9.599004e-5,"MEAN_MOTION_DOT":4.9e-7,"MEAN_MOTION_DDOT":0},{"OBJECT_NAME":"ONEWEB-0013","OBJECT_ID":"2020-008A","EPOCH":"2026-03-11T06:53:54.149856","MEAN_MOTION":13.09452684,"ECCENTRICITY":8.441e-5,"INCLINATION":87.8445,"RA_OF_ASC_NODE":72.5862,"ARG_OF_PERICENTER":92.7821,"MEAN_ANOMALY":267.3403,"EPHEMERIS_TYPE":0,"CLASSIFICATION_TYPE":"U","NORAD_CAT_ID":45131,"ELEMENT_SET_NO":999,"REV_AT_EPOCH":29325,"BSTAR":0.0010045339,"MEAN_MOTION_DOT":3.59e-6,"MEAN_MOTION_DDOT":0},{"OBJECT_NAME":"ONEWEB-0017","OBJECT_ID":"2020-008B","EPOCH":"2026-03-11T00:47:36.535200","MEAN_MOTION":13.10370422,"ECCENTRICITY":0.0002055,"INCLINATION":87.8772,"RA_OF_ASC_NODE":55.812,"ARG_OF_PERICENTER":89.2794,"MEAN_ANOMALY":270.8569,"EPHEMERIS_TYPE":0,"CLASSIFICATION_TYPE":"U","NORAD_CAT_ID":45132,"ELEMENT_SET_NO":999,"REV_AT_EPOCH":29509,"BSTAR":0.0012963702,"MEAN_MOTION_DOT":4.65e-6,"MEAN_MOTION_DDOT":0},{"OBJECT_NAME":"ONEWEB-0020","OBJECT_ID":"2020-008C","EPOCH":"2026-03-11T05:34:26.729184","MEAN_MOTION":13.10375865,"ECCENTRICITY":0.00018166,"INCLINATION":87.8783,"RA_OF_ASC_NODE":55.7632,"ARG_OF_PERICENTER":85.3218,"MEAN_ANOMALY":274.8117,"EPHEMERIS_TYPE":0,"CLASSIFICATION_TYPE":"U","NORAD_CAT_ID":45133,"ELEMENT_SET_NO":999,"REV_AT_EPOCH":29551,"BSTAR":-0.00010410652,"MEAN_MOTION_DOT":-2.4e-7,"MEAN_MOTION_DDOT":0},{"OBJECT_NAME":"ONEWEB-0021","OBJECT_ID":"2020-008D","EPOCH":"2026-03-11T00:26:05.977536","MEAN_MOTION":13.10373607,"ECCENTRICITY":0.00017843,"INCLINATION":87.8775,"RA_OF_ASC_NODE":55.8298,"ARG_OF_PERICENTER":89.0555,"MEAN_ANOMALY":271.0777,"EPHEMERIS_TYPE":0,"CLASSIFICATION_TYPE":"U","NORAD_CAT_ID":45134,"ELEMENT_SET_NO":999,"REV_AT_EPOCH":29579,"BSTAR":0.0016059949,"MEAN_MOTION_DOT":5.73e-6,"MEAN_MOTION_DDOT":0},{"OBJECT_NAME":"ONEWEB-0023","OBJECT_ID":"2020-008F","EPOCH":"2026-03-11T00:41:37.598496","MEAN_MOTION":13.10372089,"ECCENTRICITY":0.00016597,"INCLINATION":87.8769,"RA_OF_ASC_NODE":55.8074,"ARG_OF_PERICENTER":85.3597,"MEAN_ANOMALY":274.772,"EPHEMERIS_TYPE":0,"CLASSIFICATION_TYPE":"U","NORAD_CAT_ID":45136,"ELEMENT_SET_NO":999,"REV_AT_EPOCH":29522,"BSTAR":0.0016336123,"MEAN_MOTION_DOT":5.83e-6,"MEAN_MOTION_DDOT":0},{"OBJECT_NAME":"ONEWEB-0024","OBJECT_ID":"2020-008G","EPOCH":"2026-03-10T22:12:13.442976","MEAN_MOTION":13.1037576,"ECCENTRICITY":0.0001866,"INCLINATION":87.8785,"RA_OF_ASC_NODE":55.8136,"ARG_OF_PERICENTER":85.943,"MEAN_ANOMALY":274.1911,"EPHEMERIS_TYPE":0,"CLASSIFICATION_TYPE":"U","NORAD_CAT_ID":45137,"ELEMENT_SET_NO":999,"REV_AT_EPOCH":29537,"BSTAR":-0.00035132,"MEAN_MOTION_DOT":-1.1e-6,"MEAN_MOTION_DDOT":0},{"OBJECT_NAME":"ONEWEB-0025","OBJECT_ID":"2020-008H","EPOCH":"2026-03-11T07:32:09.374496","MEAN_MOTION":13.10877776,"ECCENTRICITY":0.00015015,"INCLINATION":87.8785,"RA_OF_ASC_NODE":55.7273,"ARG_OF_PERICENTER":90.5556,"MEAN_ANOMALY":269.5743,"EPHEMERIS_TYPE":0,"CLASSIFICATION_TYPE":"U","NORAD_CAT_ID":45138,"ELEMENT_SET_NO":999,"REV_AT_EPOCH":29575,"BSTAR":0.00047762225,"MEAN_MOTION_DOT":1.81e-6,"MEAN_MOTION_DDOT":0},{"OBJECT_NAME":"ONEWEB-0026","OBJECT_ID":"2020-008J","EPOCH":"2026-03-10T23:09:03.982752","MEAN_MOTION":13.11417799,"ECCENTRICITY":0.00020257,"INCLINATION":87.8872,"RA_OF_ASC_NODE":40.5925,"ARG_OF_PERICENTER":82.0645,"MEAN_ANOMALY":278.0713,"EPHEMERIS_TYPE":0,"CLASSIFICATION_TYPE":"U","NORAD_CAT_ID":45139,"ELEMENT_SET_NO":999,"REV_AT_EPOCH":29823,"BSTAR":0.00063244943,"MEAN_MOTION_DOT":2.37e-6,"MEAN_MOTION_DDOT":0},{"OBJECT_NAME":"ONEWEB-0028","OBJECT_ID":"2020-008K","EPOCH":"2026-03-11T07:16:07.781376","MEAN_MOTION":13.11413723,"ECCENTRICITY":0.00011933,"INCLINATION":87.8856,"RA_OF_ASC_NODE":40.5338,"ARG_OF_PERICENTER":82.3408,"MEAN_ANOMALY":277.7856,"EPHEMERIS_TYPE":0,"CLASSIFICATION_TYPE":"U","NORAD_CAT_ID":45140,"ELEMENT_SET_NO":999,"REV_AT_EPOCH":29579,"BSTAR":0.00058039786,"MEAN_MOTION_DOT":2.18e-6,"MEAN_MOTION_DDOT":0},{"OBJECT_NAME":"ONEWEB-0032","OBJECT_ID":"2020-008L","EPOCH":"2026-03-10T23:00:03.123936","MEAN_MOTION":13.10364477,"ECCENTRICITY":0.000134,"INCLINATION":87.8771,"RA_OF_ASC_NODE":55.8283,"ARG_OF_PERICENTER":82.4729,"MEAN_ANOMALY":277.6551,"EPHEMERIS_TYPE":0,"CLASSIFICATION_TYPE":"U","NORAD_CAT_ID":45141,"ELEMENT_SET_NO":999,"REV_AT_EPOCH":29543,"BSTAR":0.0043951,"MEAN_MOTION_DOT":1.547e-5,"MEAN_MOTION_DDOT":0},{"OBJECT_NAME":"ONEWEB-0033","OBJECT_ID":"2020-008M","EPOCH":"2026-03-11T07:33:56.263392","MEAN_MOTION":13.10373375,"ECCENTRICITY":0.00021564,"INCLINATION":87.8774,"RA_OF_ASC_NODE":55.7644,"ARG_OF_PERICENTER":86.5101,"MEAN_ANOMALY":273.6273,"EPHEMERIS_TYPE":0,"CLASSIFICATION_TYPE":"U","NORAD_CAT_ID":45142,"ELEMENT_SET_NO":999,"REV_AT_EPOCH":29539,"BSTAR":0.00028550399,"MEAN_MOTION_DOT":1.12e-6,"MEAN_MOTION_DDOT":0}]
